NORAD_CAT_ID,OBJECT_NAME,OBJECT_TYPE,EPOCH,MEAN_MOTION,ECCENTRICITY,INCLINATION,RA_OF_ASC_NODE,ARG_OF_PERICENTER,MEAN_ANOMALY,BSTAR,MEAN_MOTION_DOT,MEAN_MOTION_DDOT,TLE_LINE0,TLE_LINE1,TLE_LINE2,SEMIMAJOR_AXIS,PERIOD,APOGEE,PERIGEE,DECAYED
55668.0,STARLINK-5455,PAYLOAD,2024-07-23 04:42:26,14.98330623,0.0003199,69.9994,223.4456,261.0213,99.0584,-2.6084e-05,-4.04e-06,0.0,0 STARLINK-5455,1 55668U 23021AS  24205.19613754 -.00000404  00000-0 -26084-4 0  9991,2 55668  69.9994 223.4456 0003199 261.0213  99.0584 14.98330623 79933,6950.191,96.107,574.279,569.833,0.0
55668.0,STARLINK-5455,PAYLOAD,2024-07-23 11:06:59,14.98323265,0.0003196,69.9992,222.7711,266.8358,93.2435,-5.7278e-05,-7.76e-06,0.0,0 STARLINK-5455,1 55668U 23021AS  24205.46318328 -.00000776  00000-0 -57278-4 0  9991,2 55668  69.9992 222.7711 0003196 266.8358  93.2435 14.98323265 79976,6950.214,96.107,574.3,569.857,0.0
55668.0,STARLINK-5455,PAYLOAD,2024-07-24 11:09:00,14.98327858,0.000317,69.9992,220.247,267.298,92.7817,-0.0001695,-2.115e-05,0.0,0 STARLINK-5455,1 55668U 23021AS  24206.46458340 -.00002115  00000-0 -16950-3 0  9991,2 55668  69.9992 220.2470 0003170 267.2980  92.7817 14.98327858 80128,6950.2,96.107,574.268,569.861,0.0
55668.0,STARLINK-5455,PAYLOAD,2024-07-25 06:22:36,14.98319874,0.0003293,69.9988,218.2255,269.4068,90.6714,5.7505e-05,5.93e-06,0.0,0 STARLINK-5455,1 55668U 23021AS  24207.26570528  .00000593  00000-0  57505-4 0  9991,2 55668  69.9988 218.2255 0003293 269.4068  90.6714 14.98319874 80546,6950.224,96.108,574.378,569.8,0.0
55668.0,STARLINK-5455,PAYLOAD,2024-07-25 09:34:53,14.98320799,0.000328,69.9988,217.889,269.235,90.8433,6.5662e-05,6.9e-06,0.0,0 STARLINK-5455,1 55668U 23021AS  24207.39922539  .00000690  00000-0  65662-4 0  9999,2 55668  69.9988 217.8890 0003280 269.2350  90.8433 14.98320799 80564,6950.221,96.108,574.366,569.807,0.0
55668.0,STARLINK-5455,PAYLOAD,2024-07-26 04:48:29,14.98332926,0.0003486,69.9984,215.8687,269.5911,90.4848,0.00015976,1.814e-05,0.0,0 STARLINK-5455,1 55668U 23021AS  24208.20033587  .00001814  00000-0  15976-3 0  9997,2 55668  69.9984 215.8687 0003486 269.5911  90.4848 14.98332926 80387,6950.184,96.107,574.472,569.626,0.0
55668.0,STARLINK-5455,PAYLOAD,2024-07-26 09:36:52,14.98335079,0.0003343,69.9987,215.3645,265.9489,94.1287,0.00018169,2.076e-05,0.0,0 STARLINK-5455,1 55668U 23021AS  24208.40061334  .00002076  00000-0  18169-3 0  9998,2 55668  69.9987 215.3645 0003343 265.9489  94.1287 14.98335079 80718,6950.177,96.107,574.366,569.719,0.0
55668.0,STARLINK-5455,PAYLOAD,2024-07-26 17:37:32,14.98347994,0.0003418,69.9987,214.5231,267.2204,92.8564,0.00028199,3.275e-05,0.0,0 STARLINK-5455,1 55668U 23021AS  24208.73440008  .00003275  00000-0  28199-3 0  9999,2 55668  69.9987 214.5231 0003418 267.2204  92.8564 14.98347994 80467,6950.137,96.106,574.378,569.627,0.0
55668.0,STARLINK-5455,PAYLOAD,2024-07-27 06:26:36,14.98348299,0.0003357,69.9988,213.176,265.4911,94.5865,0.00021886,2.521e-05,0.0,0 STARLINK-5455,1 55668U 23021AS  24209.26847653  .00002521  00000-0  21886-3 0  9994,2 55668  69.9988 213.1760 0003357 265.4911  94.5865 14.98348299 80841,6950.136,96.106,574.334,569.668,0.0
55668.0,STARLINK-5455,PAYLOAD,2024-07-27 11:15:00,14.9834865,0.0003329,69.9989,212.6713,268.1469,91.9309,0.00021166,2.435e-05,0.0,0 STARLINK-5455,1 55668U 23021AS  24209.46875418  .00002435  00000-0  21166-3 0  9991,2 55668  69.9989 212.6713 0003329 268.1469  91.9309 14.98348650 80879,6950.135,96.106,574.314,569.687,0.0
55668.0,STARLINK-5455,PAYLOAD,2024-07-28 04:52:30,14.98335168,0.000294,70.0004,210.8198,247.3376,112.7473,-8.6977e-05,-1.131e-05,0.0,0 STARLINK-5455,1 55668U 23021AS  24210.20312604 -.00001131  00000-0 -86977-4 0  9994,2 55668  70.0004 210.8198 0002940 247.3376 112.7473 14.98335168 80684,6950.177,96.107,574.085,569.999,0.0
55668.0,STARLINK-5455,PAYLOAD,2024-07-28 09:40:54,14.98328105,0.0003423,69.9987,210.3148,272.194,87.8827,-0.00014939,-1.875e-05,0.0,0 STARLINK-5455,1 55668U 23021AS  24210.40341326 -.00001875  00000-0 -14939-3 0  9992,2 55668  69.9987 210.3148 0003423 272.1940  87.8827 14.98328105 80713,6950.199,96.107,574.443,569.685,0.0
55668.0,STARLINK-5455,PAYLOAD,2024-07-29 09:42:56,14.98327552,0.0003224,69.999,207.788,267.9857,92.0932,-0.00020159,-2.497e-05,0.0,0 STARLINK-5455,1 55668U 23021AS  24211.40481568 -.00002497  00000-0 -20159-3 0  9998,2 55668  69.9990 207.7880 0003224 267.9857  92.0932 14.98327552 80864,6950.2,96.107,574.306,569.825,0.0
55668.0,STARLINK-5455,PAYLOAD,2024-07-30 09:44:57,14.98317616,0.0003231,69.9991,205.2644,271.649,88.4299,8.2211e-05,8.88e-06,0.0,0 STARLINK-5455,1 55668U 23021AS  24212.40622168  .00000888  00000-0  82211-4 0  9990,2 55668  69.9991 205.2644 0003231 271.6490  88.4299 14.98317616 81012,6950.231,96.108,574.342,569.851,0.0
55668.0,STARLINK-5455,PAYLOAD,2024-07-31 09:46:58,14.98326348,0.0003245,69.999,202.7395,271.9002,88.1786,0.00014659,1.656e-05,0.0,0 STARLINK-5455,1 55668U 23021AS  24213.40762102  .00001656  00000-0  14659-3 0  9998,2 55668  69.9990 202.7395 0003245 271.9002  88.1786 14.98326348 81169,6950.204,96.107,574.325,569.814,0.0
55668.0,STARLINK-5455,PAYLOAD,2024-07-31 16:11:30,14.98326193,0.0003226,69.9991,202.0662,272.3974,87.6816,0.00011632,1.295e-05,0.0,0 STARLINK-5455,1 55668U 23021AS  24213.67466268  .00001295  00000-0  11632-3 0  9998,2 55668  69.9991 202.0662 0003226 272.3974  87.6816 14.98326193 81506,6950.205,96.107,574.312,569.828,0.0
55668.0,STARLINK-5455,PAYLOAD,2024-08-01 09:48:59,14.98332539,0.0003149,69.9993,200.2152,270.4213,89.6585,0.00013677,1.539e-05,0.0,0 STARLINK-5455,1 55668U 23021AS  24214.40901943  .00001539  00000-0  13677-3 0  9996,2 55668  69.9993 200.2152 0003149 270.4213  89.6585 14.98332539 81316,6950.185,96.107,574.239,569.861,0.0
55668.0,STARLINK-5455,PAYLOAD,2024-08-01 16:13:31,14.98353321,0.0002963,70.0003,199.5418,273.3585,86.7235,-0.00031172,-3.813e-05,0.0,0 STARLINK-5455,1 55668U 23021AS  24214.67605580 -.00003813  00000-0 -31172-3 0  9992,2 55668  70.0003 199.5418 0002963 273.3585  86.7235 14.98353321 81359,6950.121,96.106,574.045,569.926,0.0
55668.0,STARLINK-5455,PAYLOAD,2024-08-02 05:02:35,14.983351,0.0003064,69.9995,198.1954,268.1118,91.969,6.9621e-05,7.38e-06,0.0,0 STARLINK-5455,1 55668U 23021AS  24215.21013824  .00000738  00000-0  69621-4 0  9999,2 55668  69.9995 198.1954 0003064 268.1118  91.9690 14.98335100 81430,6950.177,96.107,574.172,569.913,0.0
55668.0,STARLINK-5455,PAYLOAD,2024-08-02 08:14:51,14.98335799,0.0003049,69.9995,197.8587,268.209,91.872,7.652e-05,8.2e-06,0.0,0 STARLINK-5455,1 55668U 23021AS  24215.34365723  .00000820  00000-0  76520-4 0  9999,2 55668  69.9995 197.8587 0003049 268.2090  91.8720 14.98335799 81753,6950.175,96.107,574.159,569.921,0.0
55668.0,STARLINK-5455,PAYLOAD,2024-08-02 16:15:32,14.98333844,0.0003175,69.9993,197.0177,267.3815,92.698,1.851e-05,1.28e-06,0.0,0 STARLINK-5455,1 55668U 23021AS  24215.67745882  .00000128  00000-0  18510-4 0  9999,2 55668  69.9993 197.0177 0003175 267.3815  92.6980 14.98333844 81805,6950.181,96.107,574.253,569.839,0.0
55668.0,STARLINK-5455,PAYLOAD,2024-08-03 05:04:37,14.98330038,0.0003099,69.9994,195.6706,270.2946,89.7858,-2.8583e-05,-4.34e-06,0.0,0 STARLINK-5455,1 55668U 23021AS  24216.21154227 -.00000434  00000-0 -28583-4 0  9990,2 55668  69.9994 195.6706 0003099 270.2946  89.7858 14.98330038 81589,6950.193,96.107,574.212,569.904,0.0
55668.0,STARLINK-5455,PAYLOAD,2024-08-03 08:16:53,14.98331639,0.0003078,69.9994,195.334,270.5233,89.5573,-8.9371e-06,-2e-06,0.0,0 STARLINK-5455,1 55668U 23021AS  24216.34506064 -.00000200  00000-0 -89371-5 0  9998,2 55668  69.9994 195.3340 0003078 270.5233  89.5573 14.98331639 81905,6950.188,96.107,574.192,569.914,0.0
55668.0,STARLINK-5455,PAYLOAD,2024-08-03 22:42:05,14.98331052,0.0003077,69.9995,193.8194,270.7464,89.3343,-1.8379e-05,-3.12e-06,0.0,0 STARLINK-5455,1 55668U 23021AS  24216.94590068 -.00000312  00000-0 -18379-4 0  9994,2 55668  69.9995 193.8194 0003077 270.7464  89.3343 14.98331052 81994,6950.19,96.107,574.193,569.916,0.0
55668.0,STARLINK-5455,PAYLOAD,2024-08-04 05:06:37,14.98334349,0.0003042,69.9995,193.1458,269.5708,90.5102,9.9187e-06,2.5e-07,0.0,0 STARLINK-5455,1 55668U 23021AS  24217.21293746  .00000025  00000-0  99187-5 0  9994,2 55668  69.9995 193.1458 0003042 269.5708  90.5102 14.98334349 81730,6950.179,96.107,574.159,569.93,0.0
55668.0,STARLINK-5455,PAYLOAD,2024-08-04 08:18:53,14.98336087,0.0003024,69.9995,192.8091,269.5888,90.4924,3.0236e-05,2.68e-06,0.0,0 STARLINK-5455,1 55668U 23021AS  24217.34645544  .00000268  00000-0  30236-4 0  9993,2 55668  69.9995 192.8091 0003024 269.5888  90.4924 14.98336087 82056,6950.174,96.107,574.141,569.937,0.0
55668.0,STARLINK-5455,PAYLOAD,2024-08-04 22:44:06,14.98330937,0.0002998,69.9996,191.2939,269.9911,90.0904,8.0659e-05,8.7e-06,0.0,0 STARLINK-5455,1 55668U 23021AS  24217.94729674  .00000870  00000-0  80659-4 0  9999,2 55668  69.9996 191.2939 0002998 269.9911  90.0904 14.98330937 82143,6950.19,96.107,574.139,569.971,0.0
55668.0,STARLINK-5455,PAYLOAD,2024-08-05 05:08:38,14.98334967,0.0002999,69.9995,190.621,270.2702,89.8114,0.00011121,1.234e-05,0.0,0 STARLINK-5455,1 55668U 23021AS  24218.21433338  .00001234  00000-0  11121-3 0  9991,2 55668  69.9995 190.6210 0002999 270.2702  89.8114 14.98334967 81887,6950.178,96.107,574.127,569.958,0.0
55668.0,STARLINK-5455,PAYLOAD,2024-08-05 22:46:08,14.98320801,0.0002643,70.0013,188.7726,267.9329,92.1527,-1.7294e-05,-2.99e-06,0.0,0 STARLINK-5455,1 55668U 23021AS  24218.94870642 -.00000299  00000-0 -17294-4 0  9994,2 55668  70.0013 188.7726 0002643 267.9329  92.1527 14.98320801 82298,6950.221,96.108,573.923,570.249,0.0
55668.0,STARLINK-5455,PAYLOAD,2024-08-06 05:10:40,14.98319755,0.0002604,70.0011,188.0996,248.9302,111.1579,-8.6121e-05,-1.12e-05,0.0,0 STARLINK-5455,1 55668U 23021AS  24219.21574959 -.00001120  00000-0 -86121-4 0  9996,2 55668  70.0011 188.0996 0002604 248.9302 111.1579 14.98319755 82032,6950.225,96.108,573.899,570.28,0.0
